{
  "norad_id": 67780,
  "name": "KUIPER-00218",
  "history": [
    {
      "epoch": "2026-03-28T20:08:56.482368",
      "apogee_km": 463.4838587229169,
      "perigee_km": 453.32557811435345,
      "latitude_deg": 35.59117661711554,
      "longitude_deg": -41.40390847995877,
      "semi_major_axis_km": 6836.541718418634,
      "eccentricity": 0.00074294,
      "inclination_deg": 51.8832,
      "raan_deg": 126.9357,
      "arg_perigee_deg": 108.1295,
      "mean_anomaly_deg": 252.0501,
      "mean_motion_rev_day": 15.35847374
    }
  ]
}